NORAD_CAT_ID,OBJECT_NAME,OBJECT_TYPE,EPOCH,MEAN_MOTION,ECCENTRICITY,INCLINATION,RA_OF_ASC_NODE,ARG_OF_PERICENTER,MEAN_ANOMALY,BSTAR,MEAN_MOTION_DOT,MEAN_MOTION_DDOT,TLE_LINE0,TLE_LINE1,TLE_LINE2,SEMIMAJOR_AXIS,PERIOD,APOGEE,PERIGEE,DECAYED
54192.0,STARLINK-5268,PAYLOAD,2024-07-20 06:47:33,15.08842524,0.0001569,53.2182,155.7052,105.284,254.8326,-2.4345e-05,-6.75e-06,0.0,0 STARLINK-5268,1 54192U 22141AM  24202.28302598 -.00000675  00000-0 -24345-4 0  9990,2 54192  53.2182 155.7052 0001569 105.2840 254.8326 15.08842524 95812,6917.873,95.437,540.823,538.652,0.0
54192.0,STARLINK-5268,PAYLOAD,2024-07-21 03:27:34,15.0884202,0.0001478,53.2167,151.8407,97.3267,262.7893,3.91e-05,3.34e-06,0.0,0 STARLINK-5268,1 54192U 22141AM  24203.14414550  .00000334  00000-0  39100-4 0  9993,2 54192  53.2167 151.8407 0001478  97.3267 262.7893 15.08842020 95941,6917.874,95.437,540.762,538.717,0.0
54192.0,STARLINK-5268,PAYLOAD,2024-07-22 01:42:58,15.0883809,0.0001318,53.2162,147.6856,89.4298,270.6845,-7.3328e-06,-4.05e-06,0.0,0 STARLINK-5268,1 54192U 22141AM  24204.07151314 -.00000405  00000-0 -73328-5 0  9994,2 54192  53.2162 147.6856 0001318  89.4298 270.6845 15.08838090 96315,6917.886,95.438,540.663,538.839,0.0
54192.0,STARLINK-5268,PAYLOAD,2024-07-23 03:09:08,15.08847212,0.0001193,53.2164,142.9245,78.2409,281.8717,8.7311e-05,1.102e-05,0.0,0 STARLINK-5268,1 54192U 22141AM  24205.13134489  .00001102  00000-0  87311-4 0  9995,2 54192  53.2164 142.9245 0001193  78.2409 281.8717 15.08847212 96473,6917.858,95.437,540.549,538.898,0.0
54192.0,STARLINK-5268,PAYLOAD,2024-07-23 12:41:27,15.08842597,0.0001384,53.2169,141.1413,85.5723,274.5428,3.4642e-05,2.63e-06,0.0,0 STARLINK-5268,1 54192U 22141AM  24205.52878789  .00000263  00000-0  34642-4 0  9992,2 54192  53.2169 141.1413 0001384  85.5723 274.5428 15.08842597 96309,6917.872,95.437,540.695,538.78,0.0
54192.0,STARLINK-5268,PAYLOAD,2024-07-23 19:03:00,15.08839531,0.0001487,53.2172,139.96,106.2771,253.8385,1.477e-05,-5.3e-07,0.0,0 STARLINK-5268,1 54192U 22141AM  24205.79375323 -.00000053  00000-0  14770-4 0  9995,2 54192  53.2172 139.9600 0001487 106.2771 253.8385 15.08839531 96579,6917.882,95.438,540.776,538.718,0.0
54192.0,STARLINK-5268,PAYLOAD,2024-07-24 04:35:19,15.08830748,0.0001445,53.218,138.1694,103.2149,256.9004,-4.4139e-05,-9.9e-06,0.0,0 STARLINK-5268,1 54192U 22141AM  24206.19120321 -.00000990  00000-0 -44139-4 0  9999,2 54192  53.2180 138.1694 0001445 103.2149 256.9004 15.08830748 96632,6917.909,95.438,540.773,538.774,0.0
54192.0,STARLINK-5268,PAYLOAD,2024-07-24 18:53:47,15.08843461,0.0001356,53.2179,135.4926,101.0886,259.0258,-2.104e-05,-6.23e-06,0.0,0 STARLINK-5268,1 54192U 22141AM  24206.78735741 -.00000623  00000-0 -21040-4 0  9991,2 54192  53.2179 135.4926 0001356 101.0886 259.0258 15.08843461 96724,6917.87,95.437,540.673,538.797,0.0
54192.0,STARLINK-5268,PAYLOAD,2024-07-25 04:26:05,15.08857365,0.0001338,53.2176,133.7086,99.2933,260.821,0.00011798,1.591e-05,0.0,0 STARLINK-5268,1 54192U 22141AM  24207.18478368  .00001591  00000-0  11798-3 0  9996,2 54192  53.2176 133.7086 0001338  99.2933 260.8210 15.08857365 96782,6917.827,95.436,540.618,538.767,0.0
54192.0,STARLINK-5268,PAYLOAD,2024-07-25 18:44:35,15.08828893,0.0001531,53.2174,131.0329,78.0681,282.0483,0.00018039,2.583e-05,0.0,0 STARLINK-5268,1 54192U 22141AM  24207.78096336  .00002583  00000-0  18039-3 0  9990,2 54192  53.2174 131.0329 0001531  78.0681 282.0483 15.08828893 96873,6917.914,95.438,540.838,538.72,0.0
54192.0,STARLINK-5268,PAYLOAD,2024-07-26 04:16:53,15.08840635,0.0001364,53.2174,129.2467,88.1598,271.955,0.00018612,2.675e-05,0.0,0 STARLINK-5268,1 54192U 22141AM  24208.17839682  .00002675  00000-0  18612-3 0  9992,2 54192  53.2174 129.2467 0001364  88.1598 271.9550 15.08840635 96935,6917.878,95.438,540.687,538.8,0.0
54192.0,STARLINK-5268,PAYLOAD,2024-07-26 12:13:48,15.08844956,0.0001208,53.2168,127.7598,88.226,271.887,0.00016857,2.396e-05,0.0,0 STARLINK-5268,1 54192U 22141AM  24208.50959377  .00002396  00000-0  16857-3 0  9992,2 54192  53.2168 127.7598 0001208  88.2260 271.8870 15.08844956 96754,6917.865,95.437,540.566,538.895,0.0
54192.0,STARLINK-5268,PAYLOAD,2024-07-27 21:36:54,15.08864291,0.0001593,53.2187,121.515,83.9839,276.1335,-0.00028192,-4.775e-05,0.0,0 STARLINK-5268,1 54192U 22141AM  24209.90062843 -.00004775  00000-0 -28192-3 0  9990,2 54192  53.2187 121.5150 0001593  83.9839 276.1335 15.08864291 96963,6917.806,95.436,540.773,538.569,0.0
54192.0,STARLINK-5268,PAYLOAD,2024-07-28 00:47:41,15.08832344,0.0001131,53.2154,120.9218,84.1284,275.9837,6.1115e-05,6.85e-06,0.0,0 STARLINK-5268,1 54192U 22141AM  24210.03312246  .00000685  00000-0  61115-4 0  9998,2 54192  53.2154 120.9218 0001131  84.1284 275.9837 15.08832344 97217,6917.904,95.438,540.551,538.986,0.0
54192.0,STARLINK-5268,PAYLOAD,2024-07-28 21:27:42,15.08835877,0.0001387,53.2158,117.0553,94.8711,265.2439,4.2001e-06,-2.21e-06,0.0,0 STARLINK-5268,1 54192U 22141AM  24210.89424498 -.00000221  00000-0  42001-5 0  9996,2 54192  53.2158 117.0553 0001387  94.8711 265.2439 15.08835877 97119,6917.893,95.438,540.718,538.798,0.0
54192.0,STARLINK-5268,PAYLOAD,2024-07-29 10:10:47,15.08833633,0.0001629,53.217,114.679,98.3092,261.8085,0.00016968,2.413e-05,0.0,0 STARLINK-5268,1 54192U 22141AM  24211.42416089  .00002413  00000-0  16968-3 0  9998,2 54192  53.2170 114.6790 0001629  98.3092 261.8085 15.08833633 97420,6917.9,95.438,540.892,538.638,0.0
54192.0,STARLINK-5268,PAYLOAD,2024-07-29 21:18:29,15.0883615,0.0001687,53.2175,112.5982,99.8011,260.3172,0.00018293,2.624e-05,0.0,0 STARLINK-5268,1 54192U 22141AM  24211.88784258  .00002624  00000-0  18293-3 0  9991,2 54192  53.2175 112.5982 0001687  99.8011 260.3172 15.08836150 97266,6917.892,95.438,540.924,538.59,0.0
54192.0,STARLINK-5268,PAYLOAD,2024-07-30 10:01:34,15.08836627,0.0001695,53.2172,110.2202,100.9346,259.1837,0.00015643,2.202e-05,0.0,0 STARLINK-5268,1 54192U 22141AM  24212.41776586  .00002202  00000-0  15643-3 0  9994,2 54192  53.2172 110.2202 0001695 100.9346 259.1837 15.08836627 97349,6917.891,95.438,540.928,538.583,0.0
54192.0,STARLINK-5268,PAYLOAD,2024-07-30 16:23:07,15.08846373,0.000163,53.2164,109.0298,100.2168,259.9008,0.00014903,2.085e-05,0.0,0 STARLINK-5268,1 54192U 22141AM  24212.68272047  .00002085  00000-0  14903-3 0  9993,2 54192  53.2164 109.0298 0001630 100.2168 259.9008 15.08846373 97612,6917.861,95.437,540.854,538.598,0.0
54192.0,STARLINK-5268,PAYLOAD,2024-07-30 22:44:39,15.088456,0.0001556,53.2175,107.8403,102.272,257.8446,0.00013681,1.89e-05,0.0,0 STARLINK-5268,1 54192U 22141AM  24212.94768097  .00001890  00000-0  13681-3 0  9992,2 54192  53.2175 107.8403 0001556 102.2720 257.8446 15.08845600 97425,6917.863,95.437,540.805,538.652,0.0
54192.0,STARLINK-5268,PAYLOAD,2024-07-31 09:52:21,15.08847934,0.0001386,53.2162,105.7592,90.963,269.1521,0.00010967,1.458e-05,0.0,0 STARLINK-5268,1 54192U 22141AM  24213.41135749  .00001458  00000-0  10967-3 0  9991,2 54192  53.2162 105.7592 0001386  90.9630 269.1521 15.08847934 97490,6917.856,95.437,540.68,538.762,0.0
54192.0,STARLINK-5268,PAYLOAD,2024-07-31 21:00:04,15.0883503,0.0002165,53.2168,103.6781,88.22,271.9041,-5.2347e-05,-1.121e-05,0.0,0 STARLINK-5268,1 54192U 22141AM  24213.87504695 -.00001121  00000-0 -52347-4 0  9999,2 54192  53.2168 103.6781 0002165  88.2200 271.9041 15.08835030 97797,6917.896,95.438,541.258,538.263,0.0
54192.0,STARLINK-5268,PAYLOAD,2024-07-31 22:35:27,15.08832611,0.0001915,53.2151,103.378,80.3909,279.7299,-0.00012644,-2.3e-05,0.0,0 STARLINK-5268,1 54192U 22141AM  24213.94128809 -.00002300  00000-0 -12644-3 0  9991,2 54192  53.2151 103.3780 0001915  80.3909 279.7299 15.08832611 97575,6917.903,95.438,541.093,538.443,0.0
54192.0,STARLINK-5268,PAYLOAD,2024-08-01 09:43:08,15.08844542,0.0001574,53.2154,101.2977,88.2126,271.9046,9.0364e-05,1.151e-05,0.0,0 STARLINK-5268,1 54192U 22141AM  24214.40496374  .00001151  00000-0  90364-4 0  9995,2 54192  53.2154 101.2977 0001574  88.2126 271.9046 15.08844542 97875,6917.867,95.437,540.82,538.643,0.0
54192.0,STARLINK-5268,PAYLOAD,2024-08-01 20:50:50,15.08854859,0.0001244,53.2162,99.2169,85.1367,274.9767,0.00027807,4.142e-05,0.0,0 STARLINK-5268,1 54192U 22141AM  24214.86863487  .00004142  00000-0  27807-3 0  9992,2 54192  53.2162  99.2169 0001244  85.1367 274.9767 15.08854859 97943,6917.835,95.437,540.561,538.839,0.0
54192.0,STARLINK-5268,PAYLOAD,2024-08-01 22:26:13,15.0885769,0.000112,53.2154,98.9194,86.2225,273.8895,0.00033619,5.069e-05,0.0,0 STARLINK-5268,1 54192U 22141AM  24214.93487337  .00005069  00000-0  33619-3 0  9993,2 54192  53.2154  98.9194 0001120  86.2225 273.8895 15.08857690 97728,6917.826,95.436,540.466,538.917,0.0
54192.0,STARLINK-5268,PAYLOAD,2024-08-02 09:33:55,15.08846148,0.0001191,53.2147,96.8352,87.7782,272.3347,0.00024561,3.624e-05,0.0,0 STARLINK-5268,1 54192U 22141AM  24215.39855775  .00003624  00000-0  24561-3 0  9990,2 54192  53.2147  96.8352 0001191  87.7782 272.3347 15.08846148 98021,6917.862,95.437,540.551,538.903,0.0
54192.0,STARLINK-5268,PAYLOAD,2024-08-02 20:41:37,15.0883056,0.0001515,53.2151,94.7556,82.4342,277.6822,-0.00011612,-2.135e-05,0.0,0 STARLINK-5268,1 54192U 22141AM  24215.86224386 -.00002135  00000-0 -11612-3 0  9991,2 54192  53.2151  94.7556 0001515  82.4342 277.6822 15.08830560 98097,6917.909,95.438,540.822,538.726,0.0
54192.0,STARLINK-5268,PAYLOAD,2024-08-02 22:17:01,15.08833695,0.000153,53.2151,94.4574,84.462,275.6547,0.00014786,2.066e-05,0.0,0 STARLINK-5268,1 54192U 22141AM  24215.92848413  .00002066  00000-0  14786-3 0  9997,2 54192  53.2151  94.4574 0001530  84.4620 275.6547 15.08833695 97871,6917.9,95.438,540.823,538.706,0.0
54192.0,STARLINK-5268,PAYLOAD,2024-08-03 09:24:43,15.08836515,0.0001575,53.2149,92.3754,87.3,272.8173,0.00098504,0.00015422,0.0,0 STARLINK-5268,1 54192U 22141AM  24216.39216980  .00015422  00000-0  98504-3 0  9997,2 54192  53.2149  92.3754 0001575  87.3000 272.8173 15.08836515 97944,6917.891,95.438,540.846,538.666,0.0
